IRIDIUM 112             
1 41925U 17003J   25049.91678492  .00000010  00000+0 -34452-5 0  9992
2 41925  86.3943 290.2446 0001941  88.9111 271.2307 14.34217469424009
IRIDIUM 111             
1 41926U 17003K   25049.90409970  .00000026  00000+0  21430-5 0  9993
2 41926  86.3944 290.3100 0002228  84.5365 275.6085 14.34217857423989
IRIDIUM 113             
1 42803U 17039A   25049.81429498  .00000026  00000+0  22648-5 0  9996
2 42803  86.4043 164.1955 0001832 112.4195 247.7195 14.34218122401909
IRIDIUM 123             
1 42804U 17039B   25049.92553713  .00000664  00000+0  22986-3 0  9998
2 42804  86.4014 195.5664 0002292  92.8836 267.2622 14.34221101400684
IRIDIUM 120             
1 42805U 17039C   25049.80795307  .00000230  00000+0  74939-4 0  9998
2 42805  86.4033 164.0435 0002225  89.7625 270.3826 14.34217682401894
IRIDIUM 118             
1 42807U 17039E   25049.88748729  .00000561  00000+0  19323-3 0  9996
2 42807  86.4014 195.5825 0001990  95.9854 264.1569 14.34217903400674
IRIDIUM 117             
1 42808U 17039F   25049.90651629  .00000042  00000+0  78744-5 0  9990
2 42808  86.4014 195.5370 0002349  94.4379 265.7085 14.34217242400705
